$$SOE
2460714.500000000, A.D. 2025-Feb-08 00:00:00.0000, -5.973896631560867E+09, -8.078565445789831E+08, 9.976110159894702E+08,
2460721.500000000, A.D. 2025-Feb-15 00:00:00.0000, -5.973825085452378E+09, -8.107589831329478E+08, 9.975004885049052E+08,
2460728.500000000, A.D. 2025-Feb-22 00:00:00.0000, -5.973752275940834E+09, -8.136613386996130E+08, 9.973897492154219E+08,
2460735.500000000, A.D. 2025-Mar-01 00:00:00.0000, -5.973678200944169E+09, -8.165636102921728E+08, 9.972787980049348E+08,
2460742.500000000, A.D. 2025-Mar-08 00:00:00.0000, -5.973602857298616E+09, -8.194657970395006E+08, 9.971676346064322E+08,
2460749.500000000, A.D. 2025-Mar-15 00:00:00.0000, -5.973526240780954E+09, -8.223678963506502E+08, 9.970562587575054E+08,
2460756.500000000, A.D. 2025-Mar-22 00:00:00.0000, -5.973448348338900E+09, -8.252699034922879E+08, 9.969446704442657E+08,
2460763.500000000, A.D. 2025-Mar-29 00:00:00.0000, -5.973369178952176E+09, -8.281718134208306E+08, 9.968328698364766E+08,
2460770.500000000, A.D. 2025-Apr-05 00:00:00.0000, -5.973288732799010E+09, -8.310736217308590E+08, 9.967208571402704E+08,
2460777.500000000, A.D. 2025-Apr-12 00:00:00.0000, -5.973207010654008E+09, -8.339753246156070E+08, 9.966086325532913E+08,
2460784.500000000, A.D. 2025-Apr-19 00:00:00.0000, -5.973124013704595E+09, -8.368769187206024E+08, 9.964961962671295E+08,
2460791.500000000, A.D. 2025-Apr-26 00:00:00.0000, -5.973039743514390E+09, -8.397784010931458E+08, 9.963835484752678E+08,
2460798.500000000, A.D. 2025-May-03 00:00:00.0000, -5.972954202019797E+09, -8.426797692080781E+08, 9.962706893774624E+08,
2460805.500000000, A.D. 2025-May-10 00:00:00.0000, -5.972867391531261E+09, -8.455810210608133E+08, 9.961576191784635E+08,
2460812.500000000, A.D. 2025-May-17 00:00:00.0000, -5.972779314702433E+09, -8.484821553683500E+08, 9.960443380742153E+08,
2460819.500000000, A.D. 2025-May-24 00:00:00.0000, -5.972689974293338E+09, -8.513831719324434E+08, 9.959308462050456E+08,
2460826.500000000, A.D. 2025-May-31 00:00:00.0000, -5.972599372309753E+09, -8.542840718537062E+08, 9.958171435628856E+08,
2460833.500000000, A.D. 2025-Jun-07 00:00:00.0000, -5.972507508919770E+09, -8.571848563916278E+08, 9.957032299877329E+08,
2460840.500000000, A.D. 2025-Jun-14 00:00:00.0000, -5.972414383512046E+09, -8.600855251371620E+08, 9.955891054157431E+08,
2460847.500000000, A.D. 2025-Jun-21 00:00:00.0000, -5.972319996679028E+09, -8.629860767690554E+08, 9.954747700000260E+08,
2460854.500000000, A.D. 2025-Jun-28 00:00:00.0000, -5.972224349996923E+09, -8.658865106290712E+08, 9.953602239614763E+08,
2460861.500000000, A.D. 2025-Jul-05 00:00:00.0000, -5.972127445119144E+09, -8.687868269594730E+08, 9.952454674850264E+08,
2460868.500000000, A.D. 2025-Jul-12 00:00:00.0000, -5.972029283374218E+09, -8.716870266079600E+08, 9.951305007048059E+08,
2460875.500000000, A.D. 2025-Jul-19 00:00:00.0000, -5.971929865678618E+09, -8.745871107749653E+08, 9.950153237138917E+08,
2460882.500000000, A.D. 2025-Jul-26 00:00:00.0000, -5.971829192554562E+09, -8.774870808597546E+08, 9.948999365748589E+08,
2460889.500000000, A.D. 2025-Aug-02 00:00:00.0000, -5.971727264187385E+09, -8.803869383834978E+08, 9.947843393270088E+08,
2460896.500000000, A.D. 2025-Aug-09 00:00:00.0000, -5.971624080499100E+09, -8.832866850037310E+08, 9.946685319870787E+08,
2460903.500000000, A.D. 2025-Aug-16 00:00:00.0000, -5.971519641161175E+09, -8.861863226831541E+08, 9.945525145313774E+08,
2460910.500000000, A.D. 2025-Aug-23 00:00:00.0000, -5.971413945253915E+09, -8.890858539960183E+08, 9.944362868340707E+08,
2460917.500000000, A.D. 2025-Aug-30 00:00:00.0000, -5.971306990243493E+09, -8.919852818578107E+08, 9.943198485900223E+08,
2460924.500000000, A.D. 2025-Sep-06 00:00:00.0000, -5.971198771694796E+09, -8.948846076777769E+08, 9.942031994342673E+08,
2460931.500000000, A.D. 2025-Sep-13 00:00:00.0000, -5.971089285390799E+09, -8.977838304170043E+08, 9.940863392086966E+08,
2460938.500000000, A.D. 2025-Sep-20 00:00:00.0000, -5.970978528585252E+09, -9.006829481963362E+08, 9.939692679416050E+08,
2460945.500000000, A.D. 2025-Sep-27 00:00:00.0000, -5.970866499330160E+09, -9.035819593423822E+08, 9.938519856975057E+08,
2460952.500000000, A.D. 2025-Oct-04 00:00:00.0000, -5.970753195894689E+09, -9.064808623322253E+08, 9.937344925264291E+08,
2460959.500000000, A.D. 2025-Oct-11 00:00:00.0000, -5.970638616649199E+09, -9.093796555796406E+08, 9.936167884700186E+08,
2460966.500000000, A.D. 2025-Oct-18 00:00:00.0000, -5.970522760130733E+09, -9.122783373369749E+08, 9.934988735760187E+08,
2460973.500000000, A.D. 2025-Oct-25 00:00:00.0000, -5.970405625150403E+09, -9.151769057013600E+08, 9.933807479092267E+08,
2460980.500000000, A.D. 2025-Nov-01 00:00:00.0000, -5.970287210903305E+09, -9.180753587093582E+08, 9.932624115564485E+08,
2460987.500000000, A.D. 2025-Nov-08 00:00:00.0000, -5.970167517046423E+09, -9.209736945510111E+08, 9.931438646195750E+08,
2460994.500000000, A.D. 2025-Nov-15 00:00:00.0000, -5.970046543596732E+09, -9.238719119613702E+08, 9.930251071782298E+08,
2461001.500000000, A.D. 2025-Nov-22 00:00:00.0000, -5.969924290246865E+09, -9.267700105689566E+08, 9.929061392028275E+08,
2461008.500000000, A.D. 2025-Nov-29 00:00:00.0000, -5.969800755251585E+09, -9.296679900657150E+08, 9.927869605246370E+08,
2461015.500000000, A.D. 2025-Dec-06 00:00:00.0000, -5.969675936162572E+09, -9.325658483340714E+08, 9.926675710604157E+08,
2461022.500000000, A.D. 2025-Dec-13 00:00:00.0000, -5.969549831977894E+09, -9.354635819010856E+08, 9.925479709762557E+08,
2461029.500000000, A.D. 2025-Dec-20 00:00:00.0000, -5.969422443212996E+09, -9.383611876961653E+08, 9.924281605537286E+08,
2461036.500000000, A.D. 2025-Dec-27 00:00:00.0000, -5.969293770967045E+09, -9.412586635206215E+08, 9.923081400685319E+08,
2461043.500000000, A.D. 2026-Jan-03 00:00:00.0000, -5.969163816443847E+09, -9.441560078440742E+08, 9.921879097651391E+08,
2461050.500000000, A.D. 2026-Jan-10 00:00:00.0000, -5.969032580817561E+09, -9.470532196059186E+08, 9.920674698619450E+08,
2461057.500000000, A.D. 2026-Jan-17 00:00:00.0000, -5.968900065210688E+09, -9.499502981126158E+08, 9.919468205581558E+08,
2461064.500000000, A.D. 2026-Jan-24 00:00:00.0000, -5.968766270706326E+09, -9.528472430072438E+08, 9.918259620372205E+08,
2461071.500000000, A.D. 2026-Jan-31 00:00:00.0000, -5.968631198371317E+09, -9.557440543177963E+08, 9.917048944641545E+08,
2461078.500000000, A.D. 2026-Feb-07 00:00:00.0000, -5.968494849228696E+09, -9.586407326406494E+08, 9.915836179665358E+08,
2461085.500000000, A.D. 2026-Feb-14 00:00:00.0000, -5.968357223926430E+09, -9.615372794735999E+08, 9.914621325748265E+08,
2461092.500000000, A.D. 2026-Feb-21 00:00:00.0000, -5.968218321714879E+09, -9.644336971206629E+08, 9.913404381337276E+08,
2461099.500000000, A.D. 2026-Feb-28 00:00:00.0000, -5.968078139817801E+09, -9.673299870145292E+08, 9.912185343784323E+08,
2461106.500000000, A.D. 2026-Mar-07 00:00:00.0000, -5.967936675255450E+09, -9.702261484063065E+08, 9.910964212053008E+08,
2461113.500000000, A.D. 2026-Mar-14 00:00:00.0000, -5.967793926344103E+09, -9.731221797551311E+08, 9.909740986918275E+08,
2461120.500000000, A.D. 2026-Mar-21 00:00:00.0000, -5.967649892089056E+09, -9.760180799195822E+08, 9.908515669393016E+08,
2461127.500000000, A.D. 2026-Mar-28 00:00:00.0000, -5.967504571480558E+09, -9.789138481222239E+08, 9.907288260066557E+08,
2461134.500000000, A.D. 2026-Apr-04 00:00:00.0000, -5.967357963296365E+09, -9.818094836529130E+08, 9.906058759121113E+08,
2461141.500000000, A.D. 2026-Apr-11 00:00:00.0000, -5.967210066136990E+09, -9.847049856708417E+08, 9.904827166482680E+08,
2461148.500000000, A.D. 2026-Apr-18 00:00:00.0000, -5.967060878534265E+09, -9.876003531120179E+08, 9.903593481956760E+08,
2461155.500000000, A.D. 2026-Apr-25 00:00:00.0000, -5.966910399087133E+09, -9.904955846875017E+08, 9.902357705321007E+08,
2461162.500000000, A.D. 2026-May-02 00:00:00.0000, -5.966758626593657E+09, -9.933906790020145E+08, 9.901119836324263E+08,
2461169.500000000, A.D. 2026-May-09 00:00:00.0000, -5.966605560054238E+09, -9.962856348591423E+08, 9.899879874425290E+08,
2461176.500000000, A.D. 2026-May-16 00:00:00.0000, -5.966451198167774E+09, -9.991804516147759E+08, 9.898637818038869E+08,
2461183.500000000, A.D. 2026-May-23 00:00:00.0000, -5.966295538268554E+09, -1.002075128556372E+09, 9.897393664077919E+08,
2461190.500000000, A.D. 2026-May-30 00:00:00.0000, -5.966138576782215E+09, -1.004969662988448E+09, 9.896147409959235E+08,
2461197.500000000, A.D. 2026-Jun-06 00:00:00.0000, -5.965980311517913E+09, -1.007864050297837E+09, 9.894899055687881E+08,
2461204.500000000, A.D. 2026-Jun-13 00:00:00.0000, -5.965820742130711E+09, -1.010758285799772E+09, 9.893648602819152E+08,
2461211.500000000, A.D. 2026-Jun-20 00:00:00.0000, -5.965659869255185E+09, -1.013652365438603E+09, 9.892396053146942E+08,
2461218.500000000, A.D. 2026-Jun-27 00:00:00.0000, -5.965497694008633E+09, -1.016546285683027E+09, 9.891141408395998E+08,
2461225.500000000, A.D. 2026-Jul-04 00:00:00.0000, -5.965334217863970E+09, -1.019440043390655E+09, 9.889884670282140E+08,
2461232.500000000, A.D. 2026-Jul-11 00:00:00.0000, -5.965169442638419E+09, -1.022333635773790E+09, 9.888625840596995E+08,
2461239.500000000, A.D. 2026-Jul-18 00:00:00.0000, -5.965003370505282E+09, -1.025227060440610E+09, 9.887364921250587E+08,
2461246.500000000, A.D. 2026-Jul-25 00:00:00.0000, -5.964836004004356E+09, -1.028120315508990E+09, 9.886101914249290E+08,
2461253.500000000, A.D. 2026-Aug-01 00:00:00.0000, -5.964667346002956E+09, -1.031013399840980E+09, 9.884836821523767E+08,
2461260.500000000, A.D. 2026-Aug-08 00:00:00.0000, -5.964497399392662E+09, -1.033906313433774E+09, 9.883569644379045E+08,
2461267.500000000, A.D. 2026-Aug-15 00:00:00.0000, -5.964326166106868E+09, -1.036799057516623E+09, 9.882300382553132E+08,
2461274.500000000, A.D. 2026-Aug-22 00:00:00.0000, -5.964153646220247E+09, -1.039691633132293E+09, 9.881029034579750E+08,
$$EOE